NORAD_CAT_ID,OBJECT_NAME,OBJECT_TYPE,EPOCH,MEAN_MOTION,ECCENTRICITY,INCLINATION,RA_OF_ASC_NODE,ARG_OF_PERICENTER,MEAN_ANOMALY,BSTAR,MEAN_MOTION_DOT,MEAN_MOTION_DDOT,TLE_LINE0,TLE_LINE1,TLE_LINE2,SEMIMAJOR_AXIS,PERIOD,APOGEE,PERIGEE,DECAYED
55783.0,STARLINK-5825,PAYLOAD,2024-06-24 19:58:02,14.98331488,0.0002906,70.0007,335.0828,265.6602,94.4225,3.2209e-05,2.91e-06,0.0,0 STARLINK-5825,1 55783U 23028AU  24176.83197256  .00000291  00000-0  32209-4 0  9996,2 55783  70.0007 335.0828 0002906 265.6602  94.4225 14.98331488 73721,6950.188,96.107,574.073,570.034,0.0
55783.0,STARLINK-5825,PAYLOAD,2024-06-25 11:59:23,14.98327944,0.000275,70.0012,333.4003,259.2671,100.8178,-2.8719e-05,-4.36e-06,0.0,0 STARLINK-5825,1 55783U 23028AU  24177.49957617 -.00000436  00000-0 -28719-4 0  9998,2 55783  70.0012 333.4003 0002750 259.2671 100.8178 14.98327944 73828,6950.199,96.107,573.976,570.153,0.0
55783.0,STARLINK-5825,PAYLOAD,2024-06-25 13:35:31,14.98327568,0.0002765,70.0011,333.2319,259.2739,100.8109,-3.3491e-05,-4.92e-06,0.0,0 STARLINK-5825,1 55783U 23028AU  24177.56633656 -.00000492  00000-0 -33491-4 0  9995,2 55783  70.0011 333.2319 0002765 259.2739 100.8109 14.98327568 73833,6950.2,96.107,573.987,570.144,0.0
55783.0,STARLINK-5825,PAYLOAD,2024-06-25 20:00:03,14.98327998,0.0002761,70.0012,332.5588,260.3872,99.6975,-2.6726e-05,-4.12e-06,0.0,0 STARLINK-5825,1 55783U 23028AU  24177.83337642 -.00000412  00000-0 -26726-4 0  9996,2 55783  70.0012 332.5588 0002761 260.3872  99.6975 14.98327998 73878,6950.199,96.107,573.983,570.145,0.0
55783.0,STARLINK-5825,PAYLOAD,2024-06-26 12:01:23,14.98333061,0.0002987,70.0006,330.8738,270.4856,89.596,1.1796e-05,4.8e-07,0.0,0 STARLINK-5825,1 55783U 23028AU  24178.50097136  .00000048  00000-0  11796-4 0  9996,2 55783  70.0006 330.8738 0002987 270.4856  89.5960 14.98333061 73974,6950.183,96.107,574.124,569.972,0.0
55783.0,STARLINK-5825,PAYLOAD,2024-06-27 12:03:25,14.98324499,0.0002843,70.0006,328.3488,270.3623,89.721,8.5151e-06,9e-08,0.0,0 STARLINK-5825,1 55783U 23028AU  24179.50237613  .00000009  00000-0  85151-5 0  9997,2 55783  70.0006 328.3488 0002843 270.3623  89.7210 14.98324499 74123,6950.21,96.107,574.051,570.099,0.0
55783.0,STARLINK-5825,PAYLOAD,2024-06-27 20:04:05,14.98322334,0.0002894,70.0009,327.508,268.7104,91.3724,-1.5968e-05,-2.83e-06,0.0,0 STARLINK-5825,1 55783U 23028AU  24179.83617942 -.00000283  00000-0 -15968-4 0  9994,2 55783  70.0009 327.5080 0002894 268.7104  91.3724 14.98322334 74176,6950.217,96.107,574.093,570.07,0.0
55783.0,STARLINK-5825,PAYLOAD,2024-06-28 12:05:25,14.98331259,0.0003124,70.0006,325.8249,271.8509,88.2292,0.00011091,1.231e-05,0.0,0 STARLINK-5825,1 55783U 23028AU  24180.50376952  .00001231  00000-0  11091-3 0  9997,2 55783  70.0006 325.8249 0003124 271.8509  88.2292 14.98331259 74274,6950.189,96.107,574.225,569.883,0.0
55783.0,STARLINK-5825,PAYLOAD,2024-06-28 13:41:33,14.98329213,0.000312,70.0005,325.6568,271.5432,88.537,0.00015971,1.813e-05,0.0,0 STARLINK-5825,1 55783U 23028AU  24180.57052953  .00001813  00000-0  15971-3 0  9993,2 55783  70.0005 325.6568 0003120 271.5432  88.5370 14.98329213 74281,6950.195,96.107,574.229,569.892,0.0
55783.0,STARLINK-5825,PAYLOAD,2024-06-28 20:06:04,14.98347075,0.0003011,70.0008,324.9832,273.2145,86.8669,0.00014279,1.612e-05,0.0,0 STARLINK-5825,1 55783U 23028AU  24180.83755641  .00001612  00000-0  14279-3 0  9993,2 55783  70.0008 324.9832 0003011 273.2145  86.8669 14.98347075 74322,6950.14,96.106,574.098,569.912,0.0
55783.0,STARLINK-5825,PAYLOAD,2024-06-29 02:30:37,14.98327946,0.0003063,70.0008,324.3094,273.4805,86.6004,0.00010888,1.206e-05,0.0,0 STARLINK-5825,1 55783U 23028AU  24181.10460616  .00001206  00000-0  10888-3 0  9990,2 55783  70.0008 324.3094 0003063 273.4805  86.6004 14.98327946 74368,6950.199,96.107,574.193,569.935,0.0
55783.0,STARLINK-5825,PAYLOAD,2024-06-29 12:07:27,14.98319653,0.0002674,70.0011,323.3004,275.8029,84.2825,3.3631e-05,3.08e-06,0.0,0 STARLINK-5825,1 55783U 23028AU  24181.50517624  .00000308  00000-0  33631-4 0  9990,2 55783  70.0011 323.3004 0002674 275.8029  84.2825 14.98319653 74421,6950.225,96.108,573.948,570.231,0.0
55783.0,STARLINK-5825,PAYLOAD,2024-06-29 15:19:43,14.98316566,0.0002767,70.0023,322.9644,273.9776,86.1067,2.3288e-05,1.85e-06,0.0,0 STARLINK-5825,1 55783U 23028AU  24181.63869890  .00000185  00000-0  23288-4 0  9999,2 55783  70.0023 322.9644 0002767 273.9776  86.1067 14.98316566 74441,6950.234,96.108,574.023,570.176,0.0
55783.0,STARLINK-5825,PAYLOAD,2024-06-29 20:08:07,14.98317927,0.0002695,70.0017,322.4596,270.773,89.312,-1.7523e-05,-3.02e-06,0.0,0 STARLINK-5825,1 55783U 23028AU  24181.83898070 -.00000302  00000-0 -17523-4 0  9991,2 55783  70.0017 322.4596 0002695 270.7730  89.3120 14.98317927 74470,6950.23,96.108,573.968,570.222,0.0
55783.0,STARLINK-5825,PAYLOAD,2024-06-30 08:57:47,14.9793403,0.0002506,70.0005,321.1163,118.8159,241.3252,-0.0044356,-0.00052089,0.0,0 STARLINK-5825,1 55783U 23028AU  24182.37347045 -.00052089  00000-0 -44356-2 0  9993,2 55783  70.0005 321.1163 0002506 118.8159 241.3252 14.97934030 74555,6951.418,96.132,575.025,571.541,0.0
55783.0,STARLINK-5825,PAYLOAD,2024-06-30 15:21:43,14.98336035,0.0003122,70.0006,320.4382,272.5026,87.5775,-0.00012399,-1.572e-05,0.0,0 STARLINK-5825,1 55783U 23028AU  24182.64009207 -.00001572  00000-0 -12399-3 0  9992,2 55783  70.0006 320.4382 0003122 272.5026  87.5775 14.98336035 74593,6950.174,96.107,574.209,569.869,0.0
55783.0,STARLINK-5825,PAYLOAD,2024-07-01 15:23:44,14.98326509,0.0003235,70.0002,317.9125,272.2322,87.8467,7.8359e-05,8.42e-06,0.0,0 STARLINK-5825,1 55783U 23028AU  24183.64149137  .00000842  00000-0  78359-4 0  9996,2 55783  70.0002 317.9125 0003235 272.2322  87.8467 14.98326509 74749,6950.204,96.107,574.317,569.82,0.0
55783.0,STARLINK-5825,PAYLOAD,2024-07-01 18:36:00,14.98329735,0.0003207,70.0004,317.576,272.8625,87.2167,0.00010851,1.202e-05,0.0,0 STARLINK-5825,1 55783U 23028AU  24183.77500869  .00001202  00000-0  10851-3 0  9996,2 55783  70.0004 317.5760 0003207 272.8625  87.2167 14.98329735 74760,6950.194,96.107,574.288,569.83,0.0
55783.0,STARLINK-5825,PAYLOAD,2024-07-02 13:49:37,14.98357397,0.0002951,70.0007,315.5564,276.5034,83.5789,-0.00051266,-6.209e-05,0.0,0 STARLINK-5825,1 55783U 23028AU  24184.57612674 -.00006209  00000-0 -51266-3 0  9992,2 55783  70.0007 315.5564 0002951 276.5034  83.5789 14.98357397 74880,6950.108,96.105,574.024,569.922,0.0
55783.0,STARLINK-5825,PAYLOAD,2024-07-02 18:38:01,14.98331567,0.0003086,70.0007,315.051,271.3571,88.7235,5.4977e-05,5.63e-06,0.0,0 STARLINK-5825,1 55783U 23028AU  24184.77640976  .00000563  00000-0  54977-4 0  9998,2 55783  70.0007 315.0510 0003086 271.3571  88.7235 14.98331567 74913,6950.188,96.107,574.198,569.908,0.0
55783.0,STARLINK-5825,PAYLOAD,2024-07-03 18:40:02,14.98332337,0.0003138,70.0007,312.5267,272.1461,87.9339,2.1369e-05,1.62e-06,0.0,0 STARLINK-5825,1 55783U 23028AU  24185.77780974  .00000162  00000-0  21369-4 0  9996,2 55783  70.0007 312.5267 0003138 272.1461  87.9339 14.98332337 75068,6950.186,96.107,574.232,569.87,0.0
55783.0,STARLINK-5825,PAYLOAD,2024-07-04 13:53:39,14.98328873,0.0003067,70.001,310.5068,272.2532,87.8275,2.8446e-05,2.46e-06,0.0,0 STARLINK-5825,1 55783U 23028AU  24186.57893171  .00000246  00000-0  28446-4 0  9995,2 55783  70.0010 310.5068 0003067 272.2532  87.8275 14.98328873 75181,6950.196,96.107,574.193,569.93,0.0
55783.0,STARLINK-5825,PAYLOAD,2024-07-04 18:42:03,14.98317833,0.000284,70.001,310.0019,269.9272,90.1562,0.0003491,4.074e-05,0.0,0 STARLINK-5825,1 55783U 23028AU  24186.77921103  .00004074  00000-0  34910-3 0  9999,2 55783  70.0010 310.0019 0002840 269.9272  90.1562 14.98317833 75218,6950.231,96.108,574.069,570.122,0.0
55783.0,STARLINK-5825,PAYLOAD,2024-07-05 01:06:35,14.98345999,0.0003235,70.0012,309.3287,276.143,83.936,-0.00025027,-3.079e-05,0.0,0 STARLINK-5825,1 55783U 23028AU  24187.04624571 -.00003079  00000-0 -25027-3 0  9994,2 55783  70.0012 309.3287 0003235 276.1430  83.9360 14.98345999 75257,6950.143,96.106,574.257,569.76,0.0
55783.0,STARLINK-5825,PAYLOAD,2024-07-05 12:19:32,14.98327871,0.0002946,70.0012,308.1508,271.0968,88.9854,-2.9804e-05,-4.49e-06,0.0,0 STARLINK-5825,1 55783U 23028AU  24187.51357341 -.00000449  00000-0 -29804-4 0  9990,2 55783  70.0012 308.1508 0002946 271.0968  88.9854 14.98327871 75328,6950.199,96.107,574.112,570.017,0.0
55783.0,STARLINK-5825,PAYLOAD,2024-07-05 13:55:40,14.98331402,0.0002949,70.0012,307.9826,270.0091,90.073,-3.2451e-06,-1.32e-06,0.0,0 STARLINK-5825,1 55783U 23028AU  24187.58033033 -.00000132  00000-0 -32451-5 0  9998,2 55783  70.0012 307.9826 0002949 270.0091  90.0730 14.98331402 75330,6950.189,96.107,574.103,570.004,0.0
55783.0,STARLINK-5825,PAYLOAD,2024-07-05 17:07:56,14.98330803,0.0002875,70.0013,307.6464,268.6007,91.4822,1.3764e-05,7.1e-07,0.0,0 STARLINK-5825,1 55783U 23028AU  24187.71385024  .00000071  00000-0  13764-4 0  9998,2 55783  70.0013 307.6464 0002875 268.6007  91.4822 14.98330803 75357,6950.19,96.107,574.054,570.057,0.0
55783.0,STARLINK-5825,PAYLOAD,2024-07-06 12:21:32,14.98339881,0.0002877,70.0013,305.6265,268.3077,91.7753,7.8174e-05,8.4e-06,0.0,0 STARLINK-5825,1 55783U 23028AU  24188.51496002  .00000840  00000-0  78174-4 0  9996,2 55783  70.0013 305.6265 0002877 268.3077  91.7753 14.98339881 75474,6950.162,96.106,574.027,570.028,0.0
55783.0,STARLINK-5825,PAYLOAD,2024-07-06 13:57:39,14.98348239,0.0002863,70.0013,305.4579,265.7297,94.3535,0.00017497,1.996e-05,0.0,0 STARLINK-5825,1 55783U 23028AU  24188.58171124  .00001996  00000-0  17497-3 0  9991,2 55783  70.0013 305.4579 0002863 265.7297  94.3535 14.98348239 75485,6950.136,96.106,573.991,570.012,0.0
55783.0,STARLINK-5825,PAYLOAD,2024-07-06 18:46:03,14.98352441,0.0002811,70.0013,304.9528,266.7184,93.3654,0.00020577,2.364e-05,0.0,0 STARLINK-5825,1 55783U 23028AU  24188.78198543  .00002364  00000-0  20577-3 0  9990,2 55783  70.0013 304.9528 0002811 266.7184  93.3654 14.98352441 75517,6950.123,96.106,573.942,570.035,0.0
